{"fetched_at":"2026-07-23T07:06:01.085Z","source":"https://celestrak.org/NORAD/elements/gp.php?NAME=SENTINEL&FORMAT=JSON","constellation":"sentinel-1","records":[{"OBJECT_NAME":"SENTINEL-1A","OBJECT_ID":"2014-016A","EPOCH":"2026-07-22T22:56:51.258048","CLASSIFICATION_TYPE":"U","MEAN_MOTION":14.59173925,"ECCENTRICITY":0.0001448,"INCLINATION":98.17,"RA_OF_ASC_NODE":210.9624,"ARG_OF_PERICENTER":84.2278,"MEAN_ANOMALY":275.9087,"EPHEMERIS_TYPE":0,"NORAD_CAT_ID":39634,"ELEMENT_SET_NO":999,"REV_AT_EPOCH":65523,"BSTAR":0.000035948371,"MEAN_MOTION_DOT":0.00000124,"MEAN_MOTION_DDOT":0},{"OBJECT_NAME":"SENTINEL-1B","OBJECT_ID":"2016-025A","EPOCH":"2026-07-22T23:11:20.268384","CLASSIFICATION_TYPE":"U","MEAN_MOTION":14.99298048,"ECCENTRICITY":0.00145001,"INCLINATION":98.0886,"RA_OF_ASC_NODE":266.0997,"ARG_OF_PERICENTER":12.5006,"MEAN_ANOMALY":347.6573,"EPHEMERIS_TYPE":0,"NORAD_CAT_ID":41456,"ELEMENT_SET_NO":999,"REV_AT_EPOCH":54914,"BSTAR":0.00010013166,"MEAN_MOTION_DOT":0.0000116,"MEAN_MOTION_DDOT":0},{"OBJECT_NAME":"SENTINEL-1C","OBJECT_ID":"2024-235A","EPOCH":"2026-07-22T23:53:27.243744","CLASSIFICATION_TYPE":"U","MEAN_MOTION":14.5919752,"ECCENTRICITY":0.00013712,"INCLINATION":98.1822,"RA_OF_ASC_NODE":210.7961,"ARG_OF_PERICENTER":88.468,"MEAN_ANOMALY":271.6676,"EPHEMERIS_TYPE":0,"NORAD_CAT_ID":62261,"ELEMENT_SET_NO":999,"REV_AT_EPOCH":8663,"BSTAR":0.000024825111,"MEAN_MOTION_DOT":7.1e-7,"MEAN_MOTION_DDOT":0},{"OBJECT_NAME":"SENTINEL-1D","OBJECT_ID":"2025-251A","EPOCH":"2026-07-22T18:08:04.628832","CLASSIFICATION_TYPE":"U","MEAN_MOTION":14.59198409,"ECCENTRICITY":0.00013509,"INCLINATION":98.1831,"RA_OF_ASC_NODE":210.6148,"ARG_OF_PERICENTER":90.458,"MEAN_ANOMALY":269.6775,"EPHEMERIS_TYPE":0,"NORAD_CAT_ID":66315,"ELEMENT_SET_NO":999,"REV_AT_EPOCH":3791,"BSTAR":0.000023738902,"MEAN_MOTION_DOT":6.6e-7,"MEAN_MOTION_DDOT":0}]}
