{"epoch":1784799577,"count":18318,"objects":[{"id":"39634","name":"SENTINEL 1A","type":"PAYLOAD","l1":"1 39634U 14016A   26203.95614882  .00000124  00000-0  35948-4 0  9993","l2":"2 39634  98.1700 210.9624 0001448  84.2278 275.9087 14.59173925655239"},{"id":"41456","name":"SENTINEL 1B","type":"PAYLOAD","l1":"1 41456U 16025A   26203.96620681  .00001160  00000-0  10013-3 0  9991","l2":"2 41456  98.0886 266.0997 0014500  12.5006 347.6573 14.99298048549146"},{"id":"62261","name":"SENTINEL 1C","type":"PAYLOAD","l1":"1 62261U 24235A   26203.99545421  .00000071  00000-0  24825-4 0  9998","l2":"2 62261  98.1822 210.7961 0001371  88.4680 271.6676 14.59197520 86632"},{"id":"66315","name":"SENTINEL-1D","type":"PAYLOAD","l1":"1 66315U 25251A   26203.75560913  .00000066  00000-0  23739-4 0  9995","l2":"2 66315  98.1831 210.6148 0001351  90.4580 269.6775 14.59198409 37913"}]}